FLOCK 4BE-6             
1 60516U 24149BA  26201.77651585  .00009835  00000+0  24516-3 0  9998
2 60516  97.3776 285.6884 0004802 157.0245 203.1217 15.40415338107444
FLOCK 4BE-14            
1 60517U 24149BB  26201.92253309  .00012724  00000+0  30051-3 0  9990
2 60517  97.3683 286.0047 0005821 159.6283 200.5198 15.41975158107520
FLOCK 4BE-1             
1 60518U 24149BC  26201.77309495  .00011800  00000+0  26390-3 0  9997
2 60518  97.3766 287.2536 0005446 159.5664 200.5803 15.43631846107555
FLOCK 4BE-28            
1 60519U 24149BD  26201.73314536  .00029481  00000+0  59237-3 0  9996
2 60519  97.3733 288.0500 0005538 159.3372 200.8102 15.46590317107629
IPERDRONE.0             
1 60520U 24149BE  26201.78374037  .00069428  00000+0  53465-3 0  9997
2 60520  97.3754 296.7846 0003933 155.2639 204.8814 15.71778545108186
TRANSPORTER-11 OBJECT BF
1 60521U 24149BF  26201.92993720  .04771420  24889-5  83517-3 0  9994
2 60521  97.3718 301.2335 0012811 269.0243  90.9584 16.32612768108474
CONNECTA IOT-2          
1 60522U 24149BG  26201.72938495  .00002537  00000+0  10694-3 0  9992
2 60522  97.3825 279.3704 0006138 191.4578 168.6521 15.24221063107009
CONNECTA IOT-4          
1 60524U 24149BJ  26201.74050337  .00010321  00000+0  23379-3 0  9990
2 60524  97.3785 286.5351 0006477 157.1858 202.9679 15.43279825107501
ORESAT0.5               
1 60525U 24149BK  26201.71718822  .00013908  00000+0  28424-3 0  9998
2 60525  97.3711 288.2590 0006561 147.8395 212.3256 15.46245280107654
DEIMOS                  
1 60526U 24149BL  26201.76872102  .00012497  00000+0  26380-3 0  9997
2 60526  97.3771 288.4334 0006525 152.6716 207.4878 15.45321566107634
CUAVA-2                 
1 60527U 24149BM  26201.75311360  .00007603  00000+0  21344-3 0  9999
2 60527  97.3711 283.3449 0007474 161.4283 198.7235 15.36813308107326
ERNST                   
1 60528U 24149BN  26201.77118397  .00008520  00000+0  21564-3 0  9990
2 60528  97.3795 285.7611 0006732 160.9577 199.1922 15.39981954107449
TORO                    
1 60530U 24149BQ  26201.93971511  .00001194  00000+0  11005-3 0  9995
2 60530  97.6768 275.9772 0001321 110.2327 249.9036 14.96526896105006
HYPSO-2                 
1 60531U 24149BR  26201.91365569  .00000897  00000+0  78964-4 0  9991
2 60531  97.6830 277.6862 0001419  97.1194 263.0191 14.98947621105104
LEMU NGE                
1 60532U 24149BS  26201.71725572  .00000640  00000+0  63598-4 0  9997
2 60532  97.6831 275.9995 0000517 119.9569 240.1703 14.95071804104967
LEMUR-2-STELLA          
1 60533U 24149BT  26201.76364279  .00006585  00000+0  38266-3 0  9993
2 60533  97.6727 284.3799 0001383 122.2813 237.8552 15.12439052105575
SATELIOT_2              
1 60534U 24149BU  26201.72763287  .00000606  00000+0  58423-4 0  9998
2 60534  97.6812 276.0720 0001213  78.7888 281.3470 14.96465862104988
NIGHTJAR                
1 60535U 24149BV  26201.83314602  .00002643  00000+0  22185-3 0  9992
2 60535  97.6849 278.0693 0002790  84.9369 275.2173 14.99197818147912
LEMUR-2-MARHISYAM       
1 60536U 24149BW  26201.95530361  .00006575  00000+0  38841-3 0  9992
2 60536  97.6870 285.0551 0002206  61.2310 298.9141 15.11842816105588
SATELIOT_4              
1 60537U 24149BX  26201.73168232  .00000826  00000+0  77177-4 0  9992
2 60537  97.6720 275.5802 0000660 287.4058  72.7092 14.96766199104997
PICO-02A021             
1 60538U 24149BY  26201.44514104  .00003002  00000+0  22458-3 0  9994
2 60538  97.6712 279.9937 0003903 259.0875 100.9911 15.03513890104734
ICEYE-X43               
1 60539U 24149BZ  26201.78917279  .00000739  00000+0  64541-4 0  9996
2 60539  97.6787 278.2997 0006355 323.0526  37.0259 14.99776516105156
HAWK-10A                
1 60540U 24149CA  26201.80087000  .00000532  00000+0  51722-4 0  9999
2 60540  97.6877 277.1344 0002555 340.0441  20.0680 14.96597016105013
UMBRA-09                
1 60541U 24149CB  26201.93730925  .00011630  00000+0  55942-3 0  9993
2 60541  97.6961 289.7434 0002192 190.7346 169.3841 15.18956657105840
QPS-SAR-8 (AMATERU-IV)  
1 60542U 24149CC  26201.78525122  .00002628  00000+0  19251-3 0  9998
2 60542  97.6638 280.6579 0002998  23.4653 336.6709 15.04418881105321
ARCTIC WEATHER SATELLITE
1 60543U 24149CD  26201.93740278  .00000406  00000+0  47886-4 0  9995
2 60543  97.6783 271.4355 0002438  37.8208 322.3181 14.89810462104325
CAPELLA-15 (ACADIA-5)   
1 60544U 24149CE  26201.91345123  .00001958  00000+0  19667-3 0  9992
2 60544  97.6761 273.9715 0003060 316.8108  43.2871 14.92386721104886
HAWK-10B                
1 60545U 24149CF  26201.80073633  .00000593  00000+0  57115-4 0  9990
2 60545  97.6796 276.4553 0004796 354.5996   5.5173 14.96596289105012
ICEYE-X39               
1 60546U 24149CG  26201.76461964  .00002401  00000+0  19730-3 0  9994
2 60546  97.6800 278.3382 0006735  30.7464 329.4153 15.00099462105156
UMBRA-10                
1 60547U 24149CH  26201.93685891  .00011599  00000+0  55799-3 0  9994
2 60547  97.6966 289.7735 0002004 157.4224 202.7098 15.18953069105853
