OBJECT_NAME,OBJECT_ID,EPOCH,MEAN_MOTION,ECCENTRICITY,INCLINATION,RA_OF_ASC_NODE,ARG_OF_PERICENTER,MEAN_ANOMALY,EPHEMERIS_TYPE,CLASSIFICATION_TYPE,NORAD_CAT_ID,ELEMENT_SET_NO,REV_AT_EPOCH,BSTAR,MEAN_MOTION_DOT,MEAN_MOTION_DDOT
FLOCK 4BE-6,2024-149BA,2026-07-20T18:38:10.969440,15.40415338,.00048026,97.3776,285.6884,157.0245,203.1217,0,U,60516,999,10744,.24515927E-3,.9835E-4,0
FLOCK 4BE-14,2024-149BB,2026-07-20T22:08:26.858976,15.41975158,.00058212,97.3683,286.0047,159.6283,200.5198,0,U,60517,999,10752,.30051472E-3,.12724E-3,0
FLOCK 4BE-1,2024-149BC,2026-07-20T18:33:15.403680,15.43631846,.0005446,97.3766,287.2536,159.5664,200.5803,0,U,60518,999,10755,.26390113E-3,.118E-3,0
FLOCK 4BE-28,2024-149BD,2026-07-20T17:35:43.759104,15.46590317,.0005538,97.3733,288.0500,159.3372,200.8102,0,U,60519,999,10762,.59236605E-3,.29481E-3,0
IPERDRONE.0,2024-149BE,2026-07-20T18:48:35.167968,15.71778545,.00039339,97.3754,296.7846,155.2639,204.8814,0,U,60520,999,10818,.53464839E-3,.69428E-3,0
TRANSPORTER-11 OBJECT BF,2024-149BF,2026-07-20T22:19:06.574080,16.32612768,.00128112,97.3718,301.2335,269.0243,90.9584,0,U,60521,999,10847,.83516754E-3,.477142E-1,.2488895E-5
CONNECTA IOT-2,2024-149BG,2026-07-20T17:30:18.859680,15.24221063,.00061384,97.3825,279.3704,191.4578,168.6521,0,U,60522,999,10700,.10693891E-3,.2537E-4,0
CONNECTA IOT-4,2024-149BJ,2026-07-20T17:46:19.491168,15.43279825,.0006477,97.3785,286.5351,157.1858,202.9679,0,U,60524,999,10750,.23379198E-3,.10321E-3,0
ORESAT0.5,2024-149BK,2026-07-20T17:12:45.062208,15.46245280,.00065611,97.3711,288.2590,147.8395,212.3256,0,U,60525,999,10765,.28423746E-3,.13908E-3,0
DEIMOS,2024-149BL,2026-07-20T18:26:57.496128,15.45321566,.00065259,97.3771,288.4334,152.6716,207.4878,0,U,60526,999,10763,.26380038E-3,.12497E-3,0
CUAVA-2,2024-149BM,2026-07-20T18:04:29.015040,15.36813308,.00074748,97.3711,283.3449,161.4283,198.7235,0,U,60527,999,10732,.21343814E-3,.7603E-4,0
ERNST,2024-149BN,2026-07-20T18:30:30.295008,15.39981954,.00067323,97.3795,285.7611,160.9577,199.1922,0,U,60528,999,10744,.21563895E-3,.852E-4,0
TORO,2024-149BQ,2026-07-20T22:33:11.385504,14.96526896,.0001321,97.6768,275.9772,110.2327,249.9036,0,U,60530,999,10500,.1100488E-3,.1194E-4,0
HYPSO-2,2024-149BR,2026-07-20T21:55:39.851616,14.98947621,.00014194,97.6830,277.6862,97.1194,263.0191,0,U,60531,999,10510,.78964203E-4,.897E-5,0
LEMU NGE,2024-149BS,2026-07-20T17:12:50.894208,14.95071804,.00005173,97.6831,275.9995,119.9569,240.1703,0,U,60532,999,10496,.63598045E-4,.64E-5,0
LEMUR-2-STELLA,2024-149BT,2026-07-20T18:19:38.737056,15.12439052,.00013831,97.6727,284.3799,122.2813,237.8552,0,U,60533,999,10557,.38265669E-3,.6585E-4,0
SATELIOT_2,2024-149BU,2026-07-20T17:27:47.479968,14.96465862,.00012131,97.6812,276.0720,78.7888,281.3470,0,U,60534,999,10498,.58422991E-4,.606E-5,0
NIGHTJAR,2024-149BV,2026-07-20T19:59:43.816128,14.99197818,.00027904,97.6849,278.0693,84.9369,275.2173,0,U,60535,999,14791,.22184904E-3,.2643E-4,0
LEMUR-2-MARHISYAM,2024-149BW,2026-07-20T22:55:38.231904,15.11842816,.00022068,97.6870,285.0551,61.2310,298.9141,0,U,60536,999,10558,.38840634E-3,.6575E-4,0
SATELIOT_4,2024-149BX,2026-07-20T17:33:37.352448,14.96766199,.00006608,97.6720,275.5802,287.4058,72.7092,0,U,60537,999,10499,.77176534E-4,.826E-5,0
PICO-02A021,2024-149BY,2026-07-20T10:41:00.185856,15.03513890,.00039035,97.6712,279.9937,259.0875,100.9911,0,U,60538,999,10473,.22458329E-3,.3002E-4,0
ICEYE-X43,2024-149BZ,2026-07-20T18:56:24.529056,14.99776516,.00063552,97.6787,278.2997,323.0526,37.0259,0,U,60539,999,10515,.64540593E-4,.739E-5,0
HAWK-10A,2024-149CA,2026-07-20T19:13:15.168000,14.96597016,.00025557,97.6877,277.1344,340.0441,20.0680,0,U,60540,999,10501,.51721651E-4,.532E-5,0
UMBRA-09,2024-149CB,2026-07-20T22:29:43.519200,15.18956657,.00021927,97.6961,289.7434,190.7346,169.3841,0,U,60541,999,10584,.55942021E-3,.1163E-3,0
QPS-SAR-8 (AMATERU-IV),2024-149CC,2026-07-20T18:50:45.705408,15.04418881,.00029989,97.6638,280.6579,23.4653,336.6709,0,U,60542,999,10532,.19250769E-3,.2628E-4,0
ARCTIC WEATHER SATELLITE,2024-149CD,2026-07-20T22:29:51.600192,14.89810462,.00024385,97.6783,271.4355,37.8208,322.3181,0,U,60543,999,10432,.47886314E-4,.406E-5,0
CAPELLA-15 (ACADIA-5),2024-149CE,2026-07-20T21:55:22.186272,14.92386721,.00030602,97.6761,273.9715,316.8108,43.2871,0,U,60544,999,10488,.19666885E-3,.1958E-4,0
HAWK-10B,2024-149CF,2026-07-20T19:13:03.618912,14.96596289,.0004796,97.6796,276.4553,354.5996,5.5173,0,U,60545,999,10501,.57115026E-4,.593E-5,0
ICEYE-X39,2024-149CG,2026-07-20T18:21:03.136896,15.00099462,.00067359,97.6800,278.3382,30.7464,329.4153,0,U,60546,999,10515,.19730342E-3,.2401E-4,0
UMBRA-10,2024-149CH,2026-07-20T22:29:04.609824,15.18953069,.00020049,97.6966,289.7735,157.4224,202.7098,0,U,60547,999,10585,.55799326E-3,.11599E-3,0
